{
  "type": "FeatureCollection",
  "features": [
    {
      "type": "Feature",
      "properties": {
        "norad_id": 34056,
        "name": "COSMOS 2251 DEB",
        "group": "cosmos-2251-debris",
        "lat": -71.3710418989371,
        "lon": -43.57157275187699,
        "alt_km": 891.6114184878325,
        "timestamp": "2025-12-11T13:55:02.559823+00:00",
        "meta_object_name": "COSMOS 2251 DEB",
        "meta_object_id": "1993-036JT",
        "meta_epoch": "2025-12-11T06:05:11.759712",
        "meta_mean_motion": 14.20547798,
        "meta_eccentricity": 0.01242644,
        "meta_inclination": 74.0594,
        "meta_ra_of_asc_node": 79.0344,
        "meta_arg_of_pericenter": 127.2542,
        "meta_mean_anomaly": 263.9975,
        "meta_ephemeris_type": 0,
        "meta_classification_type": "U",
        "meta_norad_cat_id": 34056,
        "meta_element_set_no": 999,
        "meta_rev_at_epoch": 86390,
        "meta_bstar": 0.0017685047,
        "meta_mean_motion_dot": 4.086e-05,
        "meta_mean_motion_ddot": 0,
        "tle_line1": "1 34056U 93036JT  25345.25360833  .00004086  00000+0  17685-2 0  9994",
        "tle_line2": "2 34056  74.0594  79.0344 0124264 127.2542 263.9975 14.20547798863902"
      },
      "geometry": {
        "type": "Point",
        "coordinates": [
          -43.57157275187699,
          -71.3710418989371
        ]
      }
    },
    {
      "type": "Feature",
      "properties": {
        "norad_id": 34058,
        "name": "COSMOS 2251 DEB",
        "group": "cosmos-2251-debris",
        "lat": -36.696074440643926,
        "lon": 167.5891847421306,
        "alt_km": 1285.8606682731997,
        "timestamp": "2025-12-11T13:55:02.559834+00:00",
        "meta_object_name": "COSMOS 2251 DEB",
        "meta_object_id": "1993-036JV",
        "meta_epoch": "2025-12-11T05:52:30.154080",
        "meta_mean_motion": 13.5607269,
        "meta_eccentricity": 0.03780193,
        "meta_inclination": 73.9315,
        "meta_ra_of_asc_node": 180.5358,
        "meta_arg_of_pericenter": 176.0573,
        "meta_mean_anomaly": 307.8183,
        "meta_ephemeris_type": 0,
        "meta_classification_type": "U",
        "meta_norad_cat_id": 34058,
        "meta_element_set_no": 999,
        "meta_rev_at_epoch": 83122,
        "meta_bstar": 0.0009601533,
        "meta_mean_motion_dot": 1.045e-05,
        "meta_mean_motion_ddot": 0,
        "tle_line1": "1 34058U 93036JV  25345.24479345  .00001045  00000+0  96015-3 0  9991",
        "tle_line2": "2 34058  73.9315 180.5358 0378019 176.0573 307.8183 13.56072690831222"
      },
      "geometry": {
        "type": "Point",
        "coordinates": [
          167.5891847421306,
          -36.696074440643926
        ]
      }
    },
    {
      "type": "Feature",
      "properties": {
        "norad_id": 34059,
        "name": "COSMOS 2251 DEB",
        "group": "cosmos-2251-debris",
        "lat": 42.230827865358954,
        "lon": -6.594002302355611,
        "alt_km": 720.8071856630158,
        "timestamp": "2025-12-11T13:55:02.559844+00:00",
        "meta_object_name": "COSMOS 2251 DEB",
        "meta_object_id": "1993-036JW",
        "meta_epoch": "2025-12-11T07:29:15.326016",
        "meta_mean_motion": 14.52934839,
        "meta_eccentricity": 0.00186409,
        "meta_inclination": 74.0378,
        "meta_ra_of_asc_node": 188.9699,
        "meta_arg_of_pericenter": 266.4025,
        "meta_mean_anomaly": 268.5899,
        "meta_ephemeris_type": 0,
        "meta_classification_type": "U",
        "meta_norad_cat_id": 34059,
        "meta_element_set_no": 999,
        "meta_rev_at_epoch": 88438,
        "meta_bstar": 0.0012466257,
        "meta_mean_motion_dot": 5.124e-05,
        "meta_mean_motion_ddot": 0,
        "tle_line1": "1 34059U 93036JW  25345.31198294  .00005124  00000+0  12466-2 0  9990",
        "tle_line2": "2 34059  74.0378 188.9699 0018640 266.4025 268.5899 14.52934839884382"
      },
      "geometry": {
        "type": "Point",
        "coordinates": [
          -6.594002302355611,
          42.230827865358954
        ]
      }
    },
    {
      "type": "Feature",
      "properties": {
        "norad_id": 34061,
        "name": "COSMOS 2251 DEB",
        "group": "cosmos-2251-debris",
        "lat": 4.535822106386523,
        "lon": 84.23228400106505,
        "alt_km": 773.6076959714273,
        "timestamp": "2025-12-11T13:55:02.559855+00:00",
        "meta_object_name": "COSMOS 2251 DEB",
        "meta_object_id": "1993-036JY",
        "meta_epoch": "2025-12-11T05:18:29.257344",
        "meta_mean_motion": 14.40351757,
        "meta_eccentricity": 0.00204872,
        "meta_inclination": 74.0394,
        "meta_ra_of_asc_node": 266.196,
        "meta_arg_of_pericenter": 343.3569,
        "meta_mean_anomaly": 132.5599,
        "meta_ephemeris_type": 0,
        "meta_classification_type": "U",
        "meta_norad_cat_id": 34061,
        "meta_element_set_no": 999,
        "meta_rev_at_epoch": 88158,
        "meta_bstar": 0.00052772527,
        "meta_mean_motion_dot": 1.652e-05,
        "meta_mean_motion_ddot": 0,
        "tle_line1": "1 34061U 93036JY  25345.22117196  .00001652  00000+0  52773-3 0  9993",
        "tle_line2": "2 34061  74.0394 266.1960 0020487 343.3569 132.5599 14.40351757881588"
      },
      "geometry": {
        "type": "Point",
        "coordinates": [
          84.23228400106505,
          4.535822106386523
        ]
      }
    },
    {
      "type": "Feature",
      "properties": {
        "norad_id": 34062,
        "name": "COSMOS 2251 DEB",
        "group": "cosmos-2251-debris",
        "lat": 42.76873185386882,
        "lon": -55.0459071799038,
        "alt_km": 624.6315254963129,
        "timestamp": "2025-12-11T13:55:02.559865+00:00",
        "meta_object_name": "COSMOS 2251 DEB",
        "meta_object_id": "1993-036JZ",
        "meta_epoch": "2025-12-11T04:21:36.662976",
        "meta_mean_motion": 14.78556909,
        "meta_eccentricity": 0.00749467,
        "meta_inclination": 74.0275,
        "meta_ra_of_asc_node": 141.1,
        "meta_arg_of_pericenter": 220.5017,
        "meta_mean_anomaly": 316.5762,
        "meta_ephemeris_type": 0,
        "meta_classification_type": "U",
        "meta_norad_cat_id": 34062,
        "meta_element_set_no": 999,
        "meta_rev_at_epoch": 88572,
        "meta_bstar": 0.0042589212,
        "meta_mean_motion_dot": 0.00032761,
        "meta_mean_motion_ddot": 0,
        "tle_line1": "1 34062U 93036JZ  25345.18167434  .00032761  00000+0  42589-2 0  9997",
        "tle_line2": "2 34062  74.0275 141.1000 0074946 220.5017 316.5762 14.78556909885720"
      },
      "geometry": {
        "type": "Point",
        "coordinates": [
          -55.0459071799038,
          42.76873185386882
        ]
      }
    },
    {
      "type": "Feature",
      "properties": {
        "norad_id": 34064,
        "name": "COSMOS 2251 DEB",
        "group": "cosmos-2251-debris",
        "lat": 37.48452776236873,
        "lon": 80.33586970501212,
        "alt_km": 762.6103495886964,
        "timestamp": "2025-12-11T13:55:02.559876+00:00",
        "meta_object_name": "COSMOS 2251 DEB",
        "meta_object_id": "1993-036KB",
        "meta_epoch": "2025-12-11T07:21:51.065856",
        "meta_mean_motion": 14.42331059,
        "meta_eccentricity": 0.00220682,
        "meta_inclination": 74.0328,
        "meta_ra_of_asc_node": 273.5261,
        "meta_arg_of_pericenter": 340.0935,
        "meta_mean_anomaly": 183.2606,
        "meta_ephemeris_type": 0,
        "meta_classification_type": "U",
        "meta_norad_cat_id": 34064,
        "meta_element_set_no": 999,
        "meta_rev_at_epoch": 88121,
        "meta_bstar": 0.00096244871,
        "meta_mean_motion_dot": 3.163e-05,
        "meta_mean_motion_ddot": 0,
        "tle_line1": "1 34064U 93036KB  25345.30684104  .00003163  00000+0  96245-3 0  9994",
        "tle_line2": "2 34064  74.0328 273.5261 0022068 340.0935 183.2606 14.42331059881219"
      },
      "geometry": {
        "type": "Point",
        "coordinates": [
          80.33586970501212,
          37.48452776236873
        ]
      }
    },
    {
      "type": "Feature",
      "properties": {
        "norad_id": 34065,
        "name": "COSMOS 2251 DEB",
        "group": "cosmos-2251-debris",
        "lat": 7.9128004060450925,
        "lon": 77.97708756670455,
        "alt_km": 778.021507512025,
        "timestamp": "2025-12-11T13:55:02.559886+00:00",
        "meta_object_name": "COSMOS 2251 DEB",
        "meta_object_id": "1993-036KC",
        "meta_epoch": "2025-12-11T05:31:20.519040",
        "meta_mean_motion": 14.38059888,
        "meta_eccentricity": 0.00163121,
        "meta_inclination": 74.0359,
        "meta_ra_of_asc_node": 260.9013,
        "meta_arg_of_pericenter": 358.7261,
        "meta_mean_anomaly": 162.7579,
        "meta_ephemeris_type": 0,
        "meta_classification_type": "U",
        "meta_norad_cat_id": 34065,
        "meta_element_set_no": 999,
        "meta_rev_at_epoch": 88183,
        "meta_bstar": 0.00026072342,
        "meta_mean_motion_dot": 7.64e-06,
        "meta_mean_motion_ddot": 0,
        "tle_line1": "1 34065U 93036KC  25345.23009860  .00000764  00000+0  26072-3 0  9992",
        "tle_line2": "2 34065  74.0359 260.9013 0016312 358.7261 162.7579 14.38059888881833"
      },
      "geometry": {
        "type": "Point",
        "coordinates": [
          77.97708756670455,
          7.9128004060450925
        ]
      }
    }
  ]
}